,Contracted with VSS? (1=yes; 2=no),Facility level (Trung ương=central; tỉnh=provincial; huyện=district),Facility name-VN,Name_English,Facility type-VN,Type_name,Sectoral (1:health sector; 2:other sector;3:private sector),address,longitude,latitude,phone,hyperlink,pro_name_e,dist_name_e
0,1,tỉnh,Bệnh viện đa khoa Xanh Pôn,Saint Paul Municipal General Hospital,bệnh viện đa khoa tỉnh,provincial general hospital,1.0,"12 Chu Văn An, Phường Điện Biên, Quận Ba Đình, Hà Nội",105.83558566,21.03161003,967711616,,Ha Noi,Ba Dinh District
1,1,,Bệnh viện Hữu nghị Việt Đức (CS1 Hà Nội),Viet Duc (University) Hospital (CS1,bệnh viện chuyên khoa trung ương,Central specialized hospital,1.0,"40 Tràng Thi, P. Hàng Bông, Q. Hoàn Kiếm, Hà Nội",105.84535321,21.029563144,(024) 3825 3531 ,http://www.vietduchospital.edu.vn/; http://benhvienvietduc.org/,Ha Noi,Hoan Kiem District
2,1,tỉnh,Bệnh viện Tim Hà Nội (CS1),Hanoi Municipal Heart Hospital (CS1),bệnh viện chuyên khoa tỉnh,Provincial specialized hospital,1.0,"92 Trần Hưng Đạo, Phường Cửa Nam, Quận Hoàn Kiếm, Hà Nội",105.84387402,21.02356993,(024) 3944 9292,,Ha Noi,Hoan Kiem District
3,1,tỉnh,Bệnh viện đa khoa Đức Giang,Duc Giang General Hospital,bệnh viện đa khoa tỉnh,provincial general hospital,1.0,"54 Trường Lam, Phường Đức Giang, Quận Long Biên, Hà Nội",105.89809387,21.06169741,966381616,,Ha Noi,Long Bien District
4,1,trung ương,Bệnh viện E ,E Hospital ,bệnh viện đa khoa trung ương,Central general hospital,1.0,"89 Trần Cung, Nghĩa Tân, Cau Giấy, Hà Nội, Vietnam",105.78975515,21.05056568,(024) 3754 3650,http://www.ehospital.vn/,Ha Noi,Cau Giay District
5,1,trung ương,Bệnh viện Bạch Mai (CS1),Bach Mai Hospital,bệnh viện đa khoa trung ương,Central general hospital,1.0,"78 Đường Giải Phóng, Phuong Mai, Đống Da, Hà Nội",105.84098941,21.00242559,(024) 3868 6074,http://bachmai.gov.vn/,Ha Noi,Dong Da District
6,1,,Bệnh viện Đại học Y Hà Nội,Hanoi Medical University Hospital,bệnh viện đại học/học viện/cao đẳng,University/academy/college hospital,1.0,"1 Tôn Thất Tùng, Tôn Thất Tùng, Phường Trung Tự, Quận Đống Da, Hà Nội",105.82989159,21.00244217,(024) 6291 3575,www.benhviendhyhanoi.com.vn,Ha Noi,Dong Da District
7,1,,Bệnh viện Lão khoa Trung ương,National Geriatric Hospital,bệnh viện chuyên khoa trung ương,Central specialized hospital,1.0,"Số 1A, Phuong Mai, Đống Da, Hà Nội",105.837654864,21.004657682,(024) 3576 0750,http://benhvienlaokhoa.vn/,Ha Noi,Dong Da District
8,1,tỉnh,Bệnh viện Thanh Nhàn Hà Nội (Tiền thân là BV Đa khoa Hai Bà Trưng),Hanoi Thanh Nhan Municipal Hospital (formerly Hai Ba Trung Hospital),bệnh viện đa khoa tỉnh,provincial general hospital,1.0,"42 Thanh Nhan, Thanh Nhan, Phường Thanh Nhan, Quận Hai Bà Trưng, Hà Nội",105.8588615,21.00289623,(024) 3971 4373,,Ha Noi,Hai Ba Trung District
9,1,trung ương,Bệnh viện Trung ương Quân đội 108,108 Military Central Hospital,bệnh viện đa khoa ngành,Sectoral general hospital ,2.0,"Số 1 Trần Hưng Đạo, Hai Bà Trưng, Hà Nội",105.86122544,21.01724158,69572400,http://benhvien108.vn/,Ha Noi,Hai Ba Trung District
10,1,trung ương,Bệnh viện Hữu Nghị (tại Hà Nội),Friendship Hospital (Central),bệnh viện đa khoa trung ương,Central general hospital,1.0,"Số 1 Trần Khánh Dư, Hai Bà Trưng, Hà Nội",105.8619994,21.01510803,(024) 3972 2231,http://huunghihospital.vn/,Ha Noi,Hai Ba Trung District
11,1,tỉnh,Bệnh viện đa khoa quốc tế Vinmec (CS Times City),Vinmec International General Hospital-Times City,bệnh viện đa khoa tư nhân,Private general hospital,3.0,"458 Minh Khai, Minh Khai, Phường Vinh Tuy, Quận Hai Bà Trưng, Hà Nội",105.866392348,20.996305843,(024) 3974 3556,https://www.vinmec.com/vi/,Ha Noi,Hai Ba Trung District
12,1,trung ương,Bệnh viện Quận y 103,103 Military Hospital,bệnh viện đa khoa ngành,Sectoral general hospital ,2.0,"261 Phùng Hưng, Ha Dong, Hà Nội",105.79011042,20.9668745,(024) 3356 6713,http://www.benhvien103.vn/,Ha Noi,Ha Dong District
13,1,trung ương,Bệnh viện Quận y 105,105 Military Hospital,bệnh viện đa khoa ngành,Sectoral general hospital ,2.0,"Chùa Thông, Quoc lộ 21, Phường Sơn Lộc, Thị xã Sơn Tây, Hà Nội",105.49640535,21.11691292,(024) 3250 5046 ,http://benhvienquany105.vn/,Ha Noi,Son Tay Town
14,1,tỉnh,Bệnh viện đa khoa tỉnh Lào Cai  (sáp nhập 2 bệnh viện Đa khoa số I và Đa khoa số II của tỉnh),Lao Cai Provincial General Hospital (merged Lao Cai General Hospitals 1 and 2),bệnh viện đa khoa tỉnh,provincial general hospital,1.0,"Đường Chiềng On ( B8 ) - P.Bình Minh - TP.Lào CaiHàm Nghi, Phường Kim Tân, thành phố Lào Cai, Lào Cai",104.031531,22.437161,969831414,https://bvdklaocai.vn/,Lao Cai,Lao Cai City
15,1,tỉnh,Bệnh viện đa khoa tỉnh Yên Bái,Yen Bai Provincial General Hospital,bệnh viện đa khoa tỉnh,provincial general hospital,1.0,"Yen Ninh, Yen Ninh, Phường Minh Tân, thành phố Yen Bái, Yen Bái",104.893304588,21.726583589,(0216) 3852459,,Yen Bai,Yen Bai City
16,1,tỉnh,Bệnh viện đa khoa Tỉnh Hòa Bình,Hoa Binh Provincial General Hospital,bệnh viện đa khoa tỉnh,provincial general hospital,1.0,"Tổ 27, Cù Chính Lan, Phường Đồng Tiến, thành phố Hoa Binh, Hoa Binh",105.35352056,20.826634,(0218) 3896546,http://hoabinhhospital.org.vn/,Hoa Binh,Hoa Binh City
17,1,trung ương,Bệnh viện Da khoa Trung ương Thái Nguyên,Thai Nguyen Central General Hospital,bệnh viện đa khoa trung ương,Central general hospital,1.0,"479 Lương Ngọc Quyến, Phan Đình Phùng, tp. Thai NguYen, Thai NguYen",105.82981776,21.58786302,(0208) 3855125,http://www.bvdktuthainguyen.gov.vn/,Thái Nguyên,Thai Nguyen City
18,1,tỉnh,Bệnh viện C Thái Nguyên,Thai Nguyen Provincial C Hospital,bệnh viện đa khoa tỉnh,provincial general hospital,1.0,"Số 595 đường Trần Hưng Đạo, Phường Phố Cò, TP Sông cong, Thai NguYen",105.860896,21.446729,(0208) 3861308,,Thái Nguyên,Song Cong City
19,1,tỉnh,Bệnh viện đa khoa Tỉnh Lạng Sơn,Lang Son Provincial General Hospital,bệnh viện đa khoa tỉnh,provincial general hospital,1.0," thôn Đại Sơn - xã Hợp Thành - huyện Cao Lộc - tỉnh Lạng Sơn  (cơ sở mới started operation 25 September, 2019; cơ sở cũ tại 76 Nhị Thanh, Nhị Thanh, Phường Tam Thanh, thành phố Lạng Sơn, Lạng Sơn)",106.758286,21.880991,963191515,,Lang Son,Cao Loc District
20,1,tỉnh,Bệnh viện đa khoa Tỉnh Quảng Ninh,Quang Ninh Provincial General Hospital,bệnh viện đa khoa tỉnh,provincial general hospital,1.0,"Tuệ Tĩnh, Phường Trần Hưng Đạo, thành phố Hạ Long, Quang  Ninh",107.087448735,20.953147999,(0203) 3825489,http://benhviendktinhquangninh.vn/,Quang Ninh,Ha Long City
21,1,tỉnh,Bệnh viện Việt Nam Thụy Điển Uông Bí,Uong Bi Vietnam Sweden Hospital,bệnh viện đa khoa tỉnh,provincial general hospital,1.0,"Đường Tuệ Tĩnh, P. Thanh Sơn, TP. Uông Bí, Quang  Ninh",106.75225927,21.04108761,(0203) 3854037,http://www.vsh.org.vn/,Quang Ninh,Uong Bi City
22,1,huyện,Trung tâm y tế thị xã Quảng Yên (bv),Quang Yen Town Health Center,trung tâm y tế huyện,district health center,1.0,"Trần Hưng Đạo, Phường Quang  Yen, Thị xã Quang  Yen, Quang  Ninh",106.799965875,20.942582193,(0203) 3875 225,http://trungtamytequangyen.vn/,Quang Ninh,Quang Yen Town
23,1,tỉnh,Bệnh viện đa khoa tỉnh Bắc Giang,Bac Giang Provincial General Hospital,bệnh viện đa khoa tỉnh,provincial general hospital,1.0,"Le Lợi, Phường Le Lợi, thành phố Bắc Giang, Bắc Giang",106.19742086,21.27373759,(0204) 3854259,http://www.bvdktinhbacgiang.vn/,Bac Giang,Bac Giang
24,0,,Bệnh viện Quận y 110 Bac Giang,110 Military Hospital (Bac Giang),bệnh viện đa khoa ngành,Sectoral general hospital ,2.0,"7 Trần Lựu, Trần Lựu, Xã Dĩnh Trì, thành phố Bắc Giang, Bắc Giang",106.23737029,21.29026314,(0204) 3850788,,Bac Giang,Bac Giang City
25,1,tỉnh,Bệnh viện Đa khoa Tỉnh Phú Thọ,Phu Tho Provincial General Hospital,bệnh viện đa khoa tỉnh,provincial general hospital,1.0,"Châu Phong, Nguyen Tất Thành, Phường Gia Cẩm, thành phố Viet Trì, Phu Tho",105.39412468,21.3245723,(0210) 6278888,http://benhviendakhoatinhphutho.vn/,Phu Tho,Viet Tri City
26,1,tỉnh,Bệnh viện đa khoa tỉnh Vĩnh Phúc,Vinh Phuc Provincial General Hospital,bệnh viện đa khoa tỉnh,provincial general hospital,1.0,"Bà Triệu, Bà Triệu, Phường Liên Bảo, thành phố Vinh Yen, Vinh Phuc",105.600409399,21.318515862,(0211) 3861206,http://dakhoavinhphuc.com/,Vinh Phuc,Vinh Yen City
27,1,tỉnh,Bệnh viện Đa khoa Khu vực Phúc Yên (tỉnh Vĩnh Phúc),Phuc Yen Regional General Hospital ,bệnh viện đa khoa khu vực,regional general hospital,1.0,"Phường Hùng Vương, TP. Phúc Yên, Vĩnh Phúc",105.708509471,21.232559846,(0211) 3869223,,Vinh Phuc,Phuc Yen City
28,1,tỉnh,Bệnh viện đa khoa Tỉnh Hải Dương,Hai Duong Provincial General Hospital,bệnh viện đa khoa tỉnh,provincial general hospital,1.0,"225 Nguyen Lương Bằng, Nguyen Lương Bằng, Phường Thanh Binh, thành phố Hải Dương, Hải Dương",106.307450881,20.934631654,(0220) 3890205,,Hai Duong,Hai Duong City
29,1,tỉnh,Bệnh viện Hữu Nghị Việt Tiệp (CS1),Viet Tiep Friendship Hospital (CS1),bệnh viện đa khoa tỉnh,provincial general hospital,1.0,"1 Nhà Thương, Nhà Thương, Phường Cat Dài, Quận Le Chân, Hải Phong",106.671482625,20.852450728,(0225) 3700436,,Hai Phong,Le Chan District
30,1,tỉnh,Bệnh viện đa khoa Phố Nổi (Hưng Yên),Phoi Noi General Hospital (Provincial hospital),bệnh viện đa khoa tỉnh,provincial general hospital,1.0,"Phường Bần Yen Nhân, TX Mỹ Hào, Hưng Yen",106.05681477,20.93961775,(0221) 3767666,http://benhviendakhoaphonoi.com.vn/,Hung Yen,My Hoa Town
31,1,tỉnh,Bệnh viện đa khoa Tỉnh Thái Bình,Thai Binh Provincial General Hospital,bệnh viện đa khoa tỉnh,provincial general hospital,1.0,"530 Lý Bôn, Lý Bôn, Phường Quang Trung, thành phố Thai Binh, Thai Binh",106.33872549,20.44190954,(0227) 3834281,http://bvdktinhthaibinh.vn/Portal/,Thai Binh,Thai Binh City
32,1,tỉnh,Bệnh viện đa khoa Tỉnh Hà Nam,Ha Nam Provincial General Hospital,bệnh viện đa khoa tỉnh,provincial general hospital,1.0,"Trường Chinh, Trường Chinh, Phường Minh Khai, thành phố Phủ Lý, Hà Nam",105.917046341,20.540883622,(0226) 3851228,http://benhvienhanam.vn/,Ha Nam,Phu Ly City
33,1,tỉnh,Bệnh viện đa khoa tỉnh Nam Định,Nam Dinh Provincial General Hospital,bệnh viện đa khoa tỉnh,provincial general hospital,1.0,"2 Trần Quoc Toản, Trần Quoc Toản, Phường Ngô Quyền, thành phố Nam Định, Nam Định",106.17240717,20.42589094,(0228) 3849223,,Nam Dinh,Nam Dinh City
34,1,tỉnh,Bệnh viện đa khoa Tỉnh Ninh Bình,Ninh Binh Provincial General Hospital,bệnh viện đa khoa tỉnh,provincial general hospital,1.0,"Tuệ Tĩnh, Phường Nam Thành, thành phố Ninh Binh, Ninh Binh",105.96606426,20.24557175,(0229) 3871030,http://benhviendakhoaninhbinh.com.vn/,Ninh Binh,Ninh Binh City
35,1,tỉnh,Bệnh viện đa khoa Tỉnh Thanh Hóa,"Thanh Hoa Provincial General Hospital
",bệnh viện đa khoa tỉnh,provincial general hospital,1.0,"181 Hải Thượng Lãn Ông, Hải Thượng Lãn Ông, Phường Dong Vệ, thành phố Thanh Hóa, Thanh Hóa",105.771286909,19.776166796,(0237) 3951467,,Thanh Hoa,Thanh Hoa City
36,1,tỉnh,Bệnh viện đa khoa Hợp Lực ,Hop Luc General Hospital,bệnh viện đa khoa tư nhân,Private general hospital,3.0,"595 Nguyen Chí Thanh,  Phường Đông Thọ, thành phố Thanh Hóa, Thanh Hóa",105.77796321,19.8279373,(0237) 3713713,,Thanh Hoa,Thanh Hoa City
37,1,tỉnh,Bệnh viện Hữu nghị Đa khoa Tỉnh Nghệ An,Nghe An Friendship Hospital (provincial general),bệnh viện đa khoa tỉnh,provincial general hospital,1.0,"138 Nguyen Phong Sắc, Nguyen Phong Sắc, Phường Hưng Dũng, thành phố Vinh, Nghệ An",105.700738253,18.685254116,(0238) 3844528,http://www.bvnghean.vn/home,Nghe An,Vinh City
38,1,tỉnh,Bệnh viện đa khoa Tỉnh Hà Tĩnh,Ha Tinh Provincial General Hospital,bệnh viện đa khoa tỉnh,provincial general hospital,1.0,"75 Hải Thượng Lãn Ông, Hải Thượng Lãn Ông, Phường Bắc Hà, thành phố Hà Tĩnh, Hà Tĩnh",105.895482748,18.343638515,(0239) 3855569,http://www.bvdkht.vn/,Ha Tinh,Ha Tinh City
39,1,trung ương,Bệnh viện Hữu nghị Việt Nam Cu Ba Đồng Hới,Dong Hoi Vietnam-Cuba Friendship Hospital,bệnh viện đa khoa trung ương,Central general hospital,1.0,"Tiểu khu 10, Đường Hữu Nghị, P. Nam Lý, TP. Đồng Hới, Quang Binh",106.60247056,17.47418292,(0232) 3825 105,http://bvvietnamcubadonghoi.vn/,Quang Binh,Dong Hoi City
40,1,tỉnh,Bệnh viện đa khoa Tỉnh Quảng Trị,Quang Tri Provincial General Hospital,bệnh viện đa khoa tỉnh,provincial general hospital,1.0,"83 Le Lợi,Le Lợi, Phường 5, thành phố Dong Hà, Quang  Trị",107.10871737,16.81044915,965331313,http://quangtrihospital.vn/,Quang Tri,Dong Ha City
41,1,trung ương,Bệnh viện đa khoa Trung ương Huế,Hue Central Hospital,bệnh viện đa khoa trung ương,Central general hospital ,1.0,"16 Le Lợi, TP. Huế",107.585878,16.463088,(0234) 3822325,http://www.bvtwhue.com.vn/,Thua Thien Hue,Hue City
42,1,tỉnh,Bệnh viện Đà Nẵng (BV đa khoa thành phố),Da Nang Hospital (Municipal General),bệnh viện đa khoa tỉnh,provincial general hospital,1.0,"124 Hải Phong, Hải Phong, Phường Thạch Thang, Quận Hải Châu, Đà Nẵng",108.215466399,16.072942064,(0236) 3821118,http://dananghospital.org.vn/,Da Nang,Hai Chau District
43,1,trung ương,Bệnh viện C Đà Nẵng,Da Nang C Hospital,bệnh viện đa khoa trung ương,Central general hospital ,1.0,"122 Hải Phòng, Phường Thạch Thang, Quận Hải Châu, Đà Nẵng",108.216767206,16.073089565,(0236) 3821480,http://bvcdn.org.vn/,Da Nang,Hai Chau District
44,1,tỉnh,Bệnh viện đa khoa Tỉnh Quảng  Nam,Quang Nam Provincial General Hospital,bệnh viện đa khoa tỉnh,provincial general hospital,1.0,"1 Nguyen Du, Nguyen Du, Phường An Mỹ, thành phố Tam Kỳ, Quang  Nam",108.477805939,15.571669675,(0235) 3851429,http://bvdkquangnam.vn/,Quang Nam,Tam Ky City
45,1,huyện,Bệnh viện Đa khoa Khu vực Miền Núi Phía Bắc Quảng  Nam (Đại Lộc),Quang Nam Northern Mountainous Regional General Hospital,bệnh viện đa khoa khu vực,regional general hospital,1.0,"thị trấn Ái Nghĩa, huyện Đại Lộc, Quang  Nam",108.11729325,15.886035288,967921313,,Quang Nam,Dai Loc District
46,1,trung ương,Bệnh viện đa khoa Trung ương Quảng Nam,Quang Nam Central General Hospital,bệnh viện đa khoa trung ương,Central general hospital ,1.0,"Xã Tam Hiep, huyện Núi Thành, Quang  Nam",108.62433934,15.44424533,(0235)3870390,http://www.bvtwqn.vn/,Quang Nam,Nui Thanh District
47,1,tỉnh,Bệnh viện đa khoa tỉnh Bình Định (CS1),Binh Dinh provincial General Hospital (CS1),bệnh viện đa khoa tỉnh,provincial general hospital,1.0,"106 Nguyen Huệ, Phường Trần Phú, thành phố Quy Nhơn, Binh Định",109.22625735,13.76695363,(0256) 3822330,http://binhdinhhospital.vn/,Binh Dinh,Quy Nhon City
48,1,tỉnh,Bệnh viện đa khoa Tỉnh Phú Yên,Phu Yen Provincial General Hospital,bệnh viện đa khoa tỉnh,provincial general hospital,1.0,"15 Nguyen Hữu Tho, Nguyen Hữu Tho, Phường 9, thành phố Tuy Hòa, Phú Yên",109.30012952,13.109102235,(0257) 3823219,http://benhvienphuyen.vn/,Phu Yen,Tuy Hòa City
49,1,tỉnh,Bệnh viện đa khoa Ninh Thuận,Ninh Thuan provincial General Hospital,bệnh viện đa khoa tỉnh,provincial general hospital,1.0,"5 Le Hong Phong, Le Hong Phong, Phường Mỹ Hương, thành phố Phan Rang-Tháp Chàm, Ninh Thuận",108.9896366,11.56542808,(0259) 3822661,http://benhvienninhthuan.vn/,Ninh Thuan,Phan Rang-Thap Cham City
50,1,tỉnh,Bệnh viện Đại học y Dược Hoàng Anh Gia Lai,Hoang Anh Gia Lai University Medical Center,bệnh viện đại học tư nhân,Private university hospital,3.0,238 – Lê Duẩn – TP. Pleiku – Gia Lai ,108.029564,13.971157,(0269) 2222 517,http://bvhagl.com.vn/,Gia Lai,Pleiku City
51,1,tỉnh,Bệnh viện Đa khoa Vùng Tây Nguyên (tên cũ-Bệnh viện đa khoa Tỉnh Đắk Lắk),Tay Nguyen Regional General Hospital (formerly Dak Lak Provincial General Hospital),bệnh viện đa khoa tỉnh,provincial general hospital,1.0,"184 Trần Quý Cáp, Tự An, TP Buôn Ma Thuột, Đắk Lắk",108.055376,12.665205,(0262) 3919009,http://benhviendaklak.org.vn/,Dak Lak,Buon Ma Thuot (Ban Me Thuot) City
52,1,tỉnh,Bệnh viện đa khoa Tỉnh Lâm Đồng,Lam Dong Provincial General Hospital,bệnh viện đa khoa tỉnh,provincial general hospital,1.0,"1 Phạm Ngọc Thạch, Phường 5, thành phố Đà Lạt, Lam Đồng",108.430614,11.945645,(0263) 3827528,http://www.lamdong.gov.vn/vi-VN/a/bvdk/Pages/default.aspx,Lam Dong,Da Lat City
53,1,tỉnh,Bệnh viện đa khoa Thống Nhất-Đồng Nai,Dong Nai Thong Nhat General Hospital ,bệnh viện đa khoa tỉnh,provincial general hospital,1.0,"234 Quoc Lộ 1A, Quoc Lộ 1A, Phường Tân Biên, thành phố Biên Hoa, Đồng Nai",106.90029499,10.96785891,967751717,,Dong Nai,Bien Hoa City
54,1,tỉnh,Bệnh viện đa khoa tỉnh Đồng Nai (một phần vốn xây dựng và trang bị là từ vốn XHH),Dong Nai Provincial General Hospital (PPP capital for construction and equipment),PPP,PPP,1.0,"2 Đường Đồng Khởi, Tam Hoà, Thành phố Biên Hòa, Tam Hoà tp. Biên Hòa Đồng Nai, Vietnam (old hospital was on 30/4 street)",106.867828,10.952736,967901717,,Dong Nai,Bien Hoa City
55,1,huyện,Bệnh viện Quốc tế Hoàn Mỹ Đồng Nai  [Tập đoàn Y khoa Hoàn Mỹ],Hoan My International Hospital in Dong Nai (Hoan My Group),bệnh viện đa khoa tư nhân,Private general hospital,3.0,"1048A Phạm Văn Thuận, Khu phố 2, Phường Tân Mai, Tp. Biên Hòa, tỉnh Đồng Nai",106.846929,10.958136,(0251) 3955955,https://www.hoanmydongnai.com/#slider,Dong Nai,Bien Hoa City
56,1,huyện,Bệnh viện Hoàn Mỹ -ITO Đồng Nai [Tập đoàn Y khoa Hoàn Mỹ] [tiền thân là Bệnh viện quốc tế chấn thương chỉnh hình Sài gòn – Đồng Nai],Hoan My Trauma and Orthopedics (ITO) Hospital -Dong Nai (Hoan My Group),bệnh viện chuyên khoa tư nhân,private specialized hospital ,3.0,"F99 Võ Thị Sáu, P. Thống Nhất, Tp. Biên Hòa, Tỉnh Đồng Nai",106.82875,10.948014,(0251) 3918569,https://www.hoanmyitodongnai.com/#lien-he,Dong Nai,Bien Hoa City
57,1,tỉnh,Bệnh viện đa khoa Khu vực Long Khánh,Long Khanh Regional General Hospital,bệnh viện đa khoa tỉnh,provincial general hospital,1.0,"133 Hùng Vương, P. Xuân Binh, TP. Long Khánh, Đồng Nai",107.24287936,10.92947861,967801717,,Dong Nai,Long Khanh City
58,1,tỉnh,Bệnh viện đa khoa Khu vuc Định Quán,Dinh Quan Regional General Hospital,bệnh viện đa khoa tỉnh,provincial general hospital,1.0,"thị trấn Định Quán, huyện Định Quán, Đồng Nai",107.363420614,11.198789495,967811717,,Dong Nai,Dinh Quan District
59,1,tỉnh,Bệnh viện Lê Lợi,Le Loi Provincial General Hospital,bệnh viện đa khoa tỉnh,provincial general hospital,1.0,"22 Le Lợi, Le Lợi, Phường 1, thành phố Vung Tàu, Bà Rịa - Vung Tàu",107.07442924,10.35234068,(0254) 3832667,http://benhvienleloi.com.vn/,Ba Ria - Vung Tau,Vung Tau City
60,1,tỉnh,Bệnh viện Bà Rịa,Ba Ria Provincial General Hospital,bệnh viện đa khoa tỉnh,provincial general hospital,1.0,"686 Võ Văn Kiệt, Long Tâm, Bà Rịa Vũng Tàu (cơ sở cũ tại 13 Phạm Ngọc Thạch, Phường Phước Hưng, thành phố Bà Rịa, Bà Rịa - Vung Tàu)",107.19666,10.509718,(0254) 3 731 115,http://benhvienbaria.com/,Ba Ria - Vung Tau,Ba Ria City
61,1,tỉnh,Bệnh viện đa khoa Sài Gòn,Saigon General Hospital,bệnh viện đa khoa tỉnh,provincial general hospital,1.0,"125 Le Lợi, Le Lợi, Phường Bến Thành, Quận 1, Hồ Chí Minh",106.69936634,10.77221749,(028) 3821 6589,,Ho Chi Minh City,District 1
62,1,huyện,Trung tâm y tế Quận 1 (CS1-BV),District 1 Health Center (CS1-hospital),trung tâm y tế huyện,district health center,1.0,"338 Hai Bà Trưng, Hai Bà Trưng, Phường Tân Định, Quận 1, Hồ Chí Minh",106.68947944,10.78994988,(028) 3820 6746,http://bvq1.vn/,Ho Chi Minh City,District 1
63,1,huyện,Bệnh viện Thành phố Thủ Đức,Thu Duc City Hospital,bệnh viện đa khoa huyện,district general hospital,1.0,"29 Phú Châu, Tam Phú, Thủ Đức, Hồ Chí Minh, Việt Nam",106.745461,10.864643,0966331010 ,https://benhvienthuduc.vn/,Ho Chi Minh City,Thu Duc City
64,1,huyện,Bệnh viện Đa khoa Khu vực Thủ Đức,Thu Duc Regional General Hospital,bệnh viện đa khoa khu vực,regional general hospital,1.0,"64 Le Văn Chí, Le Văn Chí, Phường Linh Trung, Quận Thủ Đức, Hồ Chí Minh",106.780870155,10.86204813,(028) 3722 2522,http://www.benhvienkhuvucthuduc.vn/,Ho Chi Minh City,Thu Duc City
65,1,Trung ương,Bệnh viện 175 (Trung ương Quân đội),175 Hospital (Central Army Hospital),bệnh viện đa khoa ngành,Sectoral general hospital ,2.0,"778 Nguyen Kiệm, Nguyen Kiệm, Phường 3, Quận Gò Vấp, Hồ Chí Minh",106.680199742,10.819179767,096 983 10 10,http://www.benhvien175.vn/,Ho Chi Minh City,Go Vap District
66,1,tỉnh,Bệnh viện Nhân Dân Gia Định,Nhan Dan Gia Dinh Hospital,bệnh viện đa khoa tỉnh,provincial general hospital,1.0,"1 Nơ Trang Long, Nơ Trang Long, Phường 7, Quận Binh Thạnh, Hồ Chí Minh",106.6940351,10.80401801,(028) 3841 2692,http://www.bvndgiadinh.org.vn/,Ho Chi Minh City,Binh Thanh District
67,1,tỉnh,Bệnh viện đa khoa quốc tế Vinmec (CS Central Park),Vinmec International General Hospital-Central Park,bệnh viện đa khoa tư nhân,Private general hospital,3.0,"208 Nguyễn Hữu Cảnh, Phường 22, Q. Bình Thạnh Hồ Chí Minh",106.72024,10.794776,(028) 3622 1166,https://www.vinmec.com/vi,Ho Chi Minh City,Binh Thanh District
68,1,trung ương,Bệnh viện Thống Nhất,Thong Nhat Hospital,bệnh viện đa khoa trung ương,Central general hospital,1.0,"Số 1, Lý Thường Kiệt, Phường 7, Quận Tân Binh, Tp.HCM",106.65286978,10.79155172,(028) 3869 0277,http://www.thongnhathospital.org.vn/,Ho Chi Minh City,Tan Binh District
69,1,huyện,Trung tâm Y tế Quận Tân Bình (CS1-BV),Tan Binh District Health Center (CS1-Hospital),trung tâm y tế huyện,district health center,1.0,"605 Hoàng Văn Thụ, Phường 4, Hồ Chí Minh",106.655337,10.794487,(028) 3844 9928,http://bvtb.org.vn/,Ho Chi Minh City,Tan Binh District
70,1,huyện,Bệnh viện Quận Tân Phú,Tan Phu District Hospital,bệnh viện đa khoa huyện,district general hospital,1.0,"609, 611 Âu Cơ, P.Phú Trung, Quận Tân Phú, Thành phố Hồ Chí Minh",106.641991306,10.783562975,(028) 3865 7948 ,http://benhvientanphu.vn/,Ho Chi Minh City,Tan Phu District
71,1,tỉnh,Bệnh viện Ngoại Thần kinh Quoc tế,International Neurosurgery Hospital,bệnh viện chuyên khoa tư nhân,private specialized hospital ,3.0,"65A Lũy Bán Bích, Lũy Bán Bích, Phường Tân Thới Hoa, Quận Tân Phu, Hồ Chí Minh",106.632187675,10.761238823,(028) 3961 6977,http://www.bvngoaithankinhqt.org.vn/,Ho Chi Minh City,Tan Phu District
72,1,tỉnh,Bệnh viện Hoàn Mỹ Sài Gòn (CS 1) [Tập đoàn Y khoa Hoàn Mỹ đã gia nhập tập đoàn quốc tế Fortis và Tập đoàn Clermont],Hoan My Saigon Hospital (CS1) Hoan My Group,bệnh viện đa khoa tư nhân,Private general hospital,3.0,"60-60A Phan Xích Long, Phường 1, Quận Phú Nhuận, Tp.HCM (formerly at 124 Trần Quốc Thảo, Quận 3 before 2011)",106.684171899,10.800063531,(028) 3990 2468,https://www.hoanmysaigon.com/#slider,Ho Chi Minh City,Phu Nhuan District
73,1,huyện,Bệnh viện Lê Văn Thịnh (Trước đây BV Quận 2),Le Van Thinh General Hospital (formerly District 2 General Hospital),bệnh viện đa khoa huyện,district general hospital,1.0,"Le Văn Thịnh, Le Văn Thịnh, Phường Binh Trưng Tây, Quận 2, Hồ Chí Minh",106.76849594,10.78231911,(028) 5432 7888,http://benhvienquan2.vn/,Ho Chi Minh City,Thu Duc City
74,1,tỉnh,Bệnh viện Nhân Dân 115,115 People's Hospital,bệnh viện đa khoa tỉnh,provincial general hospital,1.0,"527 Sư Vạn Hạnh, Sư Vạn Hạnh, Phường 12, Quận 10, Hồ Chí Minh",106.6674267,10.774916,(028) 3865 4249,http://benhvien115.com.vn/,Ho Chi Minh City,District 10
75,1,tỉnh,Bệnh viện Trưng Vương (Tiền thân là Bệnh viện Cấp Cứu Trưng Vương),Trung Vuong Hospital (formerly the Trung Vuong Emergency care Hospital),bệnh viện đa khoa tỉnh,provincial general hospital,1.0,"266 Lý Thường Kiệt, Lý Thường Kiệt, Phường 14, Quận 10, Hồ Chí Minh",106.65854905,10.77011254,(028) 3864 2750,,Ho Chi Minh City,District 10
76,1,,Bệnh viện Đại Học Y Dược TPHCM - CS1,University Medical Center HCMC-Branch 1,bệnh viện đại học/học viện/cao đẳng,University/academy/college hospital,1.0,"215 Hong Bàng,Hong Bàng, Phường 11, Quận 5, Hồ Chí Minh",106.66433369,10.75553707,(028) 3855 4269,http://www.bvdaihoc.com.vn/,Ho Chi Minh City,District 5
77,1,tỉnh,Bệnh viện Nguyễn Trí Phương,Nguyen Tri Phuong Hospital,bệnh viện đa khoa tỉnh,provincial general hospital,1.0,"468 Nguyen Trãi, Nguyen Trãi, Phường 8, Quận 5, Hồ Chí Minh",106.67000956,10.75478539,(028) 3923 4332,http://www.bvnguyentriphuong.org/bvntp/,Ho Chi Minh City,District 5
78,1,tỉnh,Bệnh viện An Bình,An Binh Hospital,bệnh viện đa khoa tỉnh,provincial general hospital,1.0,"146 Trần Phu,Nguyen Trãi, Phường 7, Quận 5, Hồ Chí Minh",106.67149331,10.75450117,(028) 5405 2844,http://www.benhvienanbinh.vn/,Ho Chi Minh City,District 5
79,1,trung ương,Bệnh viện Chợ Rẫy,Cho Ray Hospital,bệnh viện đa khoa trung ương,Central general hospital,1.0,"201B Nguyen Chí Thanh, Quận 5, TP.HCM",106.65921179,10.75669547,(028) 3855 4137,http://choray.vn/,Ho Chi Minh City,District 5
80,1,tỉnh,Bệnh viện Nguyễn Trãi,Nguyen Trai Hospital,bệnh viện đa khoa tỉnh,provincial general hospital,1.0,"314 Nguyen Trãi, Nguyen Trãi, Phường 8, Quận 5, Hồ Chí Minh",106.67485131,10.75646116,(028) 3923 5926,,Ho Chi Minh City,District 5
81,1,,Bệnh viện 7A - Quân khu 7,Hospital 7A - Quân khu 7,bệnh viện đa khoa ngành,Sectoral general hospital ,2.0,"466 Nguyen Trãi, Nguyen Trãi, Phường 8, Quận 5, Hồ Chí Minh",106.67101809,10.75496861,(028) 3923 7801,,Ho Chi Minh City,District 5
82,1,tỉnh,Bệnh viện Quốc tế City (Tiên thần là BV QT Thành Đô),City International Hospital (CIH),bệnh viện đa khoa tư nhân,Private general hospital,3.0,"Số 3, Đường 17A, P.Bình Trị Đông B, Q. Bình Tân, TP. Hồ Chí Minh",106.609518,10.741662,(028) 6280 3333,https://cih.com.vn,Ho Chi Minh City,Binh Tan District
83,1,huyện,Bệnh viện Gia An 115 (PPP - BV Nhân Dân 115),Gia An 115 Hospital  (PPP with BV Nhan Dan 115),PPP,PPP,,"Số 05, Đường 17A, Khu phố 11, P. Bình Trị Đông B, Q. Bình Tân, TP. HCM",106.607766,10.740592,(028) 6288 5886,http://www.giaan115.com/,Ho Chi Minh City,Binh Tan District
84,1,tỉnh,Bệnh viện Triều An,Trieu An Hospital,bệnh viện đa khoa tư nhân,Private general hospital,3.0," 425 Kinh Dương Vương, Phường An Lạc, Quận Bình Tân, Tp.Hồ Chí Minh",106.61686521,10.73972549,(028) 3750 9999,http://www.trieuanhospital.vn/vn/,Ho Chi Minh City,Binh Tan District
85,1,tỉnh,Bệnh viện Tim Tâm Đức,Tam Duc Heart Hospital,bệnh viện chuyên khoa tư nhân,private specialized hospital ,3.0,"4 Nguyễn Lương Bằng, phường Tân Phú, quận 7, TP.Hồ Chí Minh",106.717855,10.733657,(028) 5411 0025,,Ho Chi Minh City,District 7
86,1,huyện,Bệnh viện đa khoa Xuyên Á (BVXA) TPHCM,Xuyen A General Hospital (BVXA-HCMC),bệnh viện đa khoa tư nhân,Private general hospital,3.0,"42, Quốc lộ 22, Ấp Chợ, Xã Tân Phú Trung,Huyện Củ Chi, TP. HCM",106.558001695,10.927439431,(028) 3796 6115,http://bvxuyena.com.vn/,Ho Chi Minh City,Cu Chi District
87,1,huyện,Bệnh viện Đa khoa Khu vực Củ Chi,Cu Chi Regional General Hospital,bệnh viện đa khoa khu vực,regional general hospital,1.0,"Ấp Bàu Tre 2, Nguyen Văn Hoài, Xã Tân An Hội, huyện Củ Chi, Hồ Chí Minh",106.4769487,10.9754224,(028) 3892 0583,https://bvdkkvcuchi.vn/,Ho Chi Minh City,Cu Chi District
88,1,tỉnh,Bệnh viện đa khoa khu vực Hóc Môn,Hoc Mon Regional General Hospital,bệnh viện đa khoa khu vực,regional general hospital,1.0,"65/2B Bà Triệu, Bà Triệu, Thi tran Hóc Môn, Huyen Hóc Môn, Hồ Chí Minh",106.593367947,10.88260871,967811010,,Ho Chi Minh City,Hoc Mon
89,1,,Bệnh viện Quân y 120,120 Military Hospital,bệnh viện đa khoa ngành,Sectoral general hospital ,2.0,"518 Nguyen Thị Thập, Nguyen Thị Thập, Phường 6, thành phố Mỹ Tho, Tiền Giang",106.337686209,10.357577451,733873489,https://www.benhvienquany120.vn/,Tien Giang,My Tho City'
90,1,tỉnh,Bệnh viện đa khoa Trung tâm Tiền Giang,Tien Giang Provincial General Hospital,bệnh viện đa khoa tỉnh,provincial general hospital,1.0,"02 Hùng Vương, Phường 1, Mỹ Tho, Tiền Giang",106.36426666,10.35506309,733872363,http://www.benhvientiengiang.com.vn/en,Tien Giang,My Tho City'
91,1,tỉnh,Bệnh viện đa khoa Nguyễn Đình Chiểu,Nguyen Dinh Chieu Provincial General Hospital,bệnh viện đa khoa tỉnh,provincial general hospital,1.0,"109 Đoàn Hoang Minh, Đoàn Hoang Minh, Phường 5, thành phố Bến Tre, Bến Tre",106.367252822,10.238598401,965231919,,Ben Tre,Ben Tre City
92,1,tỉnh,Bệnh viện đa khoa Vĩnh Long,Vinh Long Provincial General Hopsital,bệnh viện đa khoa tỉnh,provincial general hospital,1.0,"301 Trần Phu, Trần Phu, Phường 4, thành phố Vinh Long, Vinh Long",105.988844695,10.231873142,703823520,http://www.bvdktinh.vinhlong.gov.vn/,Vinh Long,Vinh Long City
93,1,huyện,Bệnh viên đa khoa Xuyên Á (BVXA)-Vĩnh Long,Xuyen A General Hospital (BVXA)-Vinh Long,bệnh viện đa khoa tư nhân,Private General Hospital,3.0,"Số 68E đường Phạm Hùng, Tổ 69 khóm 2, phường 9, thành phố Vĩnh Long, tỉnh Vĩnh Long",105.940614,10.26109,083 9999 910,http://bvxuyena.com.vn/bvxa-vinh-long,Vinh Long,Vinh Long City
94,1,tỉnh,"Bệnh viện Đa khoa Đồng Tháp
",Dong Thap Provincial General Hospital,bệnh viện đa khoa tỉnh,provincial general hospital,1.0,"144 Mai Văn Khải, Mai Văn Khải, Xã Mỹ Trà, thành phố Cao Lãnh, Đồng Tháp",105.626463938,10.472275945,673851130,http://www.bvdkdongthap.vn/,Dong Thap,Cao Lanh City 
95,1,tỉnh,Bệnh viện đa khoa Trung tâm An Giang,An Giang Provincial General Hospital,bệnh viện đa khoa tỉnh,provincial general hospital,1.0,"60 Ung Van Khiem, Phường Mỹ Phước, TP. Long Xuyên, An Giang",105.435833,10.370033,2963852989,https://bvag.com.vn/,An Giang,Long Xuyen City
96,1,,Bệnh viện Tim Mạch (An Giang),An Giang Cardiology Hospital,bệnh viện chuyên khoa tỉnh,Provincial specialized hospital,1.0,"8 Nguyen Du, Nguyen Du, Phường Mỹ Binh, thành phố Long XuYen, An Giang",105.43892598,10.38924297,0296 3 954 832,http://benhvientimmachangiang.vn/,An Giang,Long Xuyen City
97,1,huyện,Bệnh viện Đa khoa Khu vực Tỉnh An Giang (BVĐKKV Châu Đốc),An Giang Regional General Hospital (Chau Doc),bệnh viện đa khoa khu vực,regional general hospital,1.0,"917 Tôn Đức Thắng, Tôn Đức Thắng, Phường Vinh Mỹ, Thành phố Châu Đốc, An Giang",105.147432,10.688677,969861919,http://bvkvcd.com.vn/,An Giang,Chau Doc City
98,1,tỉnh,Bệnh viện đa khoa tỉnh Kiên Giang (1200 beds),Kien Giang Provincial General Hospital,bệnh viện đa khoa tỉnh,provincial general hospital,1.0,"46 Le Lợi, Le Lợi, Phường Vinh Thanh Van, thành phố Rạch Giá, Kiên Giang",105.08376968,10.00846834,773869918,http://bvdkkiengiang.vn/,Kien Giang,Rach Gia City
99,1,trung ương,Bệnh viện đa khoa Trung ương Cần Thơ,Can Tho Central General Hospital,bệnh viện đa khoa trung ương,Central general hospital,1.0,"315 Nguyen Văn Linh P. An Khánh, Q. Ninh Kiều TP. Cần Thơ",105.755558141,10.02943305,7103820071,http://bvtwct.vn/,Can Tho,Ninh Kieu District
100,1,,Bệnh viện đa khoa quốc tế SIS Cần Thơ (Bệnh viện Đột quỵ Tim mạch Cần Thơ),Stroke International Services (SIS) Hospital - Can Tho,bệnh viện chuyên khoa tư nhân,Private specialized hospital,3.0,"397 Đường Nguyễn Văn Cừ, Phường An Bình, Quận Ninh Kiều, TP. Cần Thơ",105.737973,10.01639,02923 789 911,http://sisvietnam.vn/tong-quan-ve-sis/,Can Tho,Ninh Kieu District
101,1,tỉnh,Bệnh viện đa khoa Thành phố Cần Thơ,Can Tho Municipal General Hospital,bệnh viện đa khoa tỉnh,provincial general hospital,1.0,"106 Cách Mạng Tháng 8, Cách Mạng Tháng 8, Phường Cái Khế, Quận Ninh Kiều, Cần Thơ",105.776867554,10.050769493,7103721235,http://bvcantho.vn/,Can Tho,Ninh Kieu District
102,1,huyện,Bệnh viện đa khoa tư nhân Hoàn Mỹ Cửu Long [Tập đoàn Y khoa Hoàn Mỹ],Cuu Long Hoan My Hospital (Hoan My Group),bệnh viện đa khoa tư nhân,Private General Hospital,3.0,"20 Đường Võ Nguyên Giáp,  Phường Phu Thứ, Quận Cái Răng, Tp. Cần Thơ",105.79906071,10.00508821,(0292)3917901,https://www.hoanmycuulong.com/,Can Tho,Cai Rang District
103,1,tỉnh,Bệnh viện đa khoa Tỉnh Sóc Trăng,Soc Trang Provincial General Hospital,bệnh viện đa khoa tỉnh,provincial general hospital,1.0,"17 Pasteur, Pasteur, Phường 5, thành phố Sóc Trăng, Sóc Trăng",105.9802109,9.61179074,793825251,http://benhviensoctrang.vn/,Soc Trang,Soc Trang City
104,1,tỉnh,Bệnh viện đa khoa tỉnh Bạc Liêu,Bac Lieu Provincial General Hospital,bệnh viện đa khoa tỉnh,provincial general hospital,1.0,"6 Nguyen Huệ, Nguyen Huệ, Phường 3, thành phố Bạc Liêu, Bạc Liêu",105.72045632,9.28425697,7813822285,http://bvdkbl.vn/,Bac Lieu,Bac Lieu City
105,1,huyện,Bệnh viện đa khoa Thanh Vũ MEDIC  (Bạc Liêu CS 1 Đường Bà Triệu),Medic General Hospital Bac Lieu-CS1 Ba Trieu Street,bệnh viện đa khoa tư nhân,Private General Hospital,3.0,"183 Bà Triệu, Phường 3, TP Bạc Liêu, Tỉnh Bạc Liêu ",105.720767,9.285167, 0291.3908888,http://medicbaclieu.webnghean.com/lich-su-hinh-thanh,Bac Lieu,Bac Lieu City
